#dP2019 11 16  0  0  0.00000000      96 __u+U ITR00 FIT  IAC
## 2079 518400.00000000   900.00000000 58803 0.0000000000000
+  105   C06C07C08C10C11C12C13C14C16C18C19C20C21C22C23C24C25
+        C26C27C28C29C30C32C33C34C35C36C37E01E02E03E04E05E07
+        E08E09E11E12E13E14E15E18E19E21E24E25E26E27E30E31E33
+        E36G01G02G03G04G05G06G07G08G09G10G11G13G14G15G16G17
+        G18G19G20G21G22G23G24G25G26G27G28G29G30G31G32R01R02
+        R03R05R07R08R09R11R12R13R14R15R16R17R18R19R20R21R22
+        R23R24R26  0  0  0  0  0  0  0  0  0  0  0  0  0  0
++        10 10  9  9  8  8  9  9  9 13  9  9  9  0  9  9  9
++         9  9  9  9  9  9  9  9  9  9  9  6  7  6  7  6  7
++         7  6  8  6  6  7  6  7  7  6  6  7  6  6  7  6  6
++         7  5  5  5  5  5  5  5  5  5  5  5  5  5  5  4  5
++         5  5  5  5  5  5  5  5  4  5  5  5  5  5  5  7  7
++         7  7  7  7  6  7  7  7  7  7  7  6  6  7  7  7  7
++         7  7  9  0  0  0  0  0  0  0  0  0  0  0  0  0  0
%c M  cc GPS ccc cccc cccc cccc cccc ccccc ccccc ccccc ccccc
%c cc cc ccc ccc cccc cccc cccc cccc ccccc ccccc ccccc ccccc
%f  0.0000000  0.000000000  0.00000000000  0.000000000000000
%f  0.0000000  0.000000000  0.00000000000  0.000000000000000
%i    0    0    0    0      0      0      0      0         0
%i    0    0    0    0      0      0      0      0         0
/* INFORMATION & ANALYSIS CENTER (IAC)      ULTRA-RAPID DATA
/* S/V CLOCKS ARE ALIGNED TO GNSS TIME                      
/* G:C1WC2W R:C1PC2P E:C1XC5X C:C2IC6I J:C1CC2S             
/* PCV:IGS14_2076 OL/AL:FES2004  NONE     YN ORB:CoN CLK:CoN
*  2019 11 16  8 45  0.00000000
PC06 -20072.524818  22117.039601  29952.526986    317.688028
PC07 -19728.239063  37449.510700   3061.428308   -266.846554
PC08  -5701.982895  26714.420364 -31928.359646    -34.597183
PC10  -8447.135605  39994.932927 -10989.835651   -371.211246
PC11  17643.433203  -8039.825674  20106.442700     -5.270575
PC12  26964.101566   5642.695981   4387.857797    302.558880
PC13   6514.243354  35451.402121 -21588.031013    108.693149
PC14  20803.797184 -18541.666715    759.071572    402.905741
PC16 -16825.454146  22572.166629  31360.019657   -920.678385
PC18      0.000000      0.000000      0.000000 999999.999999
PC19 -15243.664140  21927.055950   8135.665742    246.295073
PC20 -23082.898419  12824.463056  -9060.188953   -297.634401
PC21  17400.410549   4256.851852  21400.544013    178.684198
PC22      0.000000      0.000000      0.000000 999999.999999
PC23  -7311.139027 -26831.871662   2331.038391   -880.303118
PC24  15191.441401  -5787.202197 -22681.938467   -879.566309
PC25   4778.325250 -23511.117818 -14268.004038   -415.770628
PC26  16284.214703  13840.604123 -17928.386067    462.240419
PC27 -25292.901132 -11189.854356   3651.237723    225.955081
PC28 -11330.503852 -17425.789251  18632.881324    217.079145
PC29  -8677.952477  13806.372036 -22647.192688    146.795381
PC30 -24459.042467   2321.416793 -13216.324938    225.166024
PC32 -17451.192670  -4120.143315 -21379.776151 999999.999999
PC33  15179.582253 -21979.650946  -8051.840987   -573.083963
PC34  24323.219693  -2493.197978  13466.661841   -237.694665
PC35  11810.150720  17085.388505 -18644.697494   -558.437797
PC36  -5466.129501  23265.474830  14441.015175   -906.846295
PC37 -15854.298225 -14788.440805  17601.728004   -758.348915
PE01   1818.788742 -28930.186618   6002.880663   -732.889237
PE02  -1779.157164  28912.608937  -6054.980029     92.251279
PE03  -2274.112668  18185.253683  23239.984712   -233.585394
PE04 -18406.711506  -9639.971288 -21084.821578   -406.702409
PE05 -21818.120379  16154.407277  11796.843766   -430.847817
PE07  28493.826222  -4695.572437   6470.760832   -299.886142
PE08  18569.879788   9278.775812  21090.335623   6262.450813
PE09 -28466.807555   4987.318412  -6442.745724   6251.249803
PE11 -23566.897211  -5456.805339 -17056.731016 999999.999999
PE12 -21923.231003 -19857.435085   1010.749519   6097.444986
PE13  23610.240182   5554.670140  16971.357713    395.429030
PE14  27176.700618   3469.923396  -2693.538121   -796.210861
PE15  22157.221375  19608.702617   -706.116489    887.644951
PE18 -26040.059319   8487.903777 -12306.025214   -891.217594
PE19   4648.589045 -18402.791575 -22716.820008     -2.884918
PE21  13227.995494 -23251.578182 -12665.866218   -566.176606
PE24 -17040.601826   3807.287469  23895.495278   5764.615512
PE25 -13279.455204  23179.043862  12763.876202   -495.896542
PE26  11233.864386 -11994.768624  24625.139357   3871.302564
PE27  16967.578398  -3857.303225 -23936.360580    344.663364
PE30  10671.735235  17817.920193 -21087.051976   4380.691158
PE31 -10746.756529 -17734.009832  21135.849041   -470.505245
PE33  -7696.791322 -22194.960905  18019.134743   -471.759561
PE36 -11225.910304  11772.327329 -24721.985113    636.185474
PG01  18367.189656   8104.564757  17348.989453   -198.964155
PG02 -14075.278801 -22566.259258   1835.427042   -347.782509
PG03  17776.814699  -4724.778524  19067.271358    -37.473006
PG04  22492.806827  -7814.339330 -11635.190084     -9.599448
PG05  -8283.832303 -15295.223487 -20154.056353     -3.519171
PG06  -3560.230927 -22895.018033  13006.591125   -125.220984
PG07  12298.560197  -9034.721752 -21434.893765   -149.878970
PG08  23941.417075   6108.929912  -9995.521590    -13.538989
PG09  23336.121973  -7862.951946 -10012.543321    -84.648203
PG10 -10876.727993  23925.886253   2929.984721   -136.515633
PG11  23445.765027   5762.670473  10211.107131   -446.665094
PG13 -17101.950021 -12869.171188 -15895.187389    -32.515505
PG14   3871.066125  15408.216459  21635.122531    -50.208713
PG15 -24804.995461  -4196.169174  -9395.174726   -272.304945
PG16   4777.239743  16855.573937 -20012.965825    -93.653296
PG17   8251.317645 -13945.760002  21452.450997    163.880174
PG18  19014.888563  15049.169024  10439.925015    100.485349
PG19    357.283568 -14622.413900  21875.595748   -239.087818
PG20 -14622.721628  20588.210593  -8007.260613    527.473287
PG21  -8453.237531  13510.291518 -20493.797246    -85.321594
PG22  15836.659247   3552.326743  21232.196645   -771.977226
PG23  26755.541477   -937.142220    120.015383   -155.235530
PG24 -19759.164574  -9220.006124  15228.968418     -4.974832
PG25 -18133.029033  13723.453545  13287.712146    -17.162433
PG26  -1568.102329  23092.268271 -12864.208380     85.334786
PG27  14713.095905  12274.880843 -18638.890567   -121.453005
PG28  12036.753165 -23373.810458   4799.312790    754.882295
PG29 -24466.479193   4859.701387  -9188.900936     42.951713
PG30   4148.096376 -19270.662818 -17680.008112    -84.986516
PG31   4539.331455  23563.617029  10845.738145     -3.532539
PG32  -7320.802420  14849.255810  20802.070612    126.551904
PR01  21971.673948 -12658.630333   2699.111442     52.744106
PR02  10787.789927 -15966.750820 -16714.716184    397.988431
PR03  -6262.452095  -9026.667246 -22988.056734      4.918501
PR05 -21658.444124  13452.178117    -43.271817     39.499864
PR07   6860.698450   8666.519444  23016.270032    -29.492264
PR08  19515.309940  -3033.556224  16195.487765     14.396616
PR09   -345.626026  25419.525235   2519.625305    101.348810
PR11  11019.943620   5041.541147 -22431.849498     19.814445
PR12   8905.789526 -13300.723648 -19836.540670     79.661458
PR13   1448.342650 -24887.661332  -5408.852909    -31.031272
PR14  -6440.493374 -21575.439389  11992.269555     45.121985
PR15 -10782.469912  -5979.056447  22356.454511    104.761409
PR16  -8760.686476  13629.178950  19642.217782      0.357819
PR17 -16534.991033 -15218.999514  12124.170418    276.330965
PR18 -22941.137292 -10071.535898  -4641.700640     14.683748
PR19 -17217.381311   -156.144258 -18821.694559    -64.199090
PR20     65.237373  11702.716860 -22659.517434   -396.315620
PR21  17042.885673  15115.750439 -11438.141722    -85.574572
PR22  22827.613086   8611.406290   7646.985566 999999.999999
PR23  12651.418545  -4208.409590  21740.128567    267.123288
PR24  -2413.631030 -12598.814258  22024.871724   -186.812471
PR26  -3477.852609   9976.025083 -23201.510349 999999.999999
EOF
